UMBRA-07                
1 58297U 23174AT  26068.71829358  .00012685  00000+0  84614-3 0  9990
2 58297  97.3902 128.3323 0004131  75.5473 284.6213 15.07174057128425
STARLINK-34950          
1 65193U 25175V   26068.62456200 -.00000684  00000+0 -43173-4 0  9992
2 65193  97.6017 302.6406 0002520  74.5682 285.5823 15.05657370 32601
